CUBESAT XI-V            
1 28895U 05043F   22343.90510863  .00001160  00000+0  22661-3 0  9997
2 28895  98.1294 112.8671 0015510 311.5224  48.4648 14.64709289913325
CUTE-1.7+APD II (CO-65) 
1 32785U 08021C   22344.18737427  .00003090  00000+0  32279-3 0  9997
2 32785  97.6820 309.7680 0013159  18.3379 341.8311 14.90344096792720
AAUSAT-II               
1 32788U 08021F   22343.88906173  .00006220  00000+0  51454-3 0  9996
2 32788  97.5504 323.3440 0008930 245.5939 114.4353 14.99219773794807
DELFI-C3 (DO-64)        
1 32789U 08021G   22343.01508106  .00021390  00000+0  10300-2 0  9995
2 32789  97.3245   3.3938 0011161  77.0670 283.1810 15.18716310798475
SEEDS II (CO-66)        
1 32791U 08021J   22344.15535740  .00004162  00000+0  39719-3 0  9992
2 32791  97.6345 315.0605 0011854 332.5655  27.4938 14.93788731793492
SWISSCUBE               
1 35932U 09051B   22343.15587756  .00000922  00000+0  21532-3 0  9993
2 35932  98.5438 203.7872 0006555 226.2094 133.8561 14.57116047701579
BEESAT-1                
1 35933U 09051C   22344.20933937  .00000797  00000+0  18761-3 0  9997
2 35933  98.5373 206.3664 0004685 235.4165 124.6591 14.57102889701849
ITUPSAT1                
1 35935U 09051E   22343.57930478  .00000726  00000+0  17538-3 0  9998
2 35935  98.5475 205.7286 0006939 243.7243 116.3241 14.56193402701367
TISAT 1                 
1 36799U 10035E   22343.07245983  .00003948  00000+0  37720-3 0  9990
2 36799  98.1583 200.3067 0010468 239.6587 120.3597 14.93848387673825
M-CUBED & EXP-1 PRIME   
1 37855U 11061F   22343.16642349  .00016300  00000+0  65245-3 0  9990
2 37855 101.7133 195.5123 0142728 257.5636 100.9579 15.16297040608145
AEROCUBE 4.5A           
1 38767U 12048K   22343.91592148  .00004696  00000+0  33005-3 0  9997
2 38767  64.6659 279.2388 0159442 214.1227 144.9560 14.96627535177026
AEROCUBE 4.5B           
1 38768U 12048L   22343.80495794  .00007167  00000+0  44648-3 0  9996
2 38768  64.6653 229.8454 0143142 209.3725 149.9293 15.02140456177461
STRAND-1                
1 39090U 13009E   22343.76061996  .00000270  00000+0  10880-3 0  9990
2 39090  98.3919 177.2605 0010078 107.1062 253.1228 14.35381770512564
BRITE-AUSTRIA           
1 39091U 13009F   22343.46995238  .00000187  00000+0  79842-4 0  9994
2 39091  98.3940 176.1747 0011502 114.2284 246.0105 14.35337904512545
SOMP                    
1 39134U 13015E   22343.02256979  .00025311  00000+0  73526-3 0  9991
2 39134  64.8579 206.6530 0029869 254.4563 105.3273 15.34993019533585
BEESAT-3                
1 39135U 13015F   22344.18776611  .00017137  00000+0  61010-3 0  9992
2 39135  64.8640 243.6986 0035223 256.6248 103.0955 15.28492137533351
BEESAT-2                
1 39136U 13015G   22343.84157596  .00015518  00000+0  58260-3 0  9994
2 39136  64.8735 254.1731 0025135 289.7520  70.0900 15.27091165533137
NEE-01 PEGASO           
1 39151U 13018B   22344.22429503  .00001732  00000+0  22746-3 0  9990
2 39151  98.0011  89.4342 0017491  48.8089 311.4628 14.81459672519703
ESTCUBE 1               
1 39161U 13021C   22344.00709254  .00001265  00000+0  20292-3 0  9990
2 39161  97.8929  56.5752 0008384 214.1331 145.9391 14.73340320515318
POPACS 1                
1 39268U 13055D   22343.88926967  .00016922  00000+0  40778-3 0  9999
2 39268  80.9963  49.9640 0546174  28.4751 334.5155 14.56893836480259
POPACS 2                
1 39269U 13055E   22343.66545971  .00018624  00000+0  50019-3 0  9998
2 39269  81.0108 112.6311 0632398 190.9514 167.7358 14.36528906476529
POPACS 3                
1 39270U 13055F   22343.19917579  .00006264  00000+0  18985-3 0  9998
2 39270  81.0125 149.2653 0679713 294.5344  58.6445 14.23954633453480
ZACUBE-1 (TSHEPISOSAT)  
1 39417U 13066B   22344.10519764  .00002089  00000+0  25573-3 0  9991
2 39417  97.6612 307.9678 0056435 187.0156 173.0275 14.83104539489158
WNISAT-1                
1 39423U 13066H   22344.17248711  .00000822  00000+0  17088-3 0  9991
2 39423  97.7247 212.4658 0173200 309.0135  49.5738 14.53694276479970
TRITON-1                
1 39427U 13066M   22344.04606990  .00002164  00000+0  33910-3 0  9991
2 39427  97.8269 272.3443 0112259  63.5364 297.7307 14.69519666484756
DELFI-N3XT              
1 39428U 13066N   22344.05728044  .00003330  00000+0  50599-3 0  9996
2 39428  97.8265 271.0316 0117039  76.0795 285.3397 14.70104774484503
GOMX-1                  
1 39430U 13066Q   22343.99103924  .00001509  00000+0  27479-3 0  9992
2 39430  97.7963 241.0744 0147150 210.8490 148.4025 14.60703926481911
CUBEBUG-2 (LO-74)       
1 39440U 13066AA  22343.47709766  .00002793  00000+0  37863-3 0  9996
2 39440  97.7502 293.9414 0076305 284.1042  75.1697 14.77700364486121
NEE-02 KRYSAOR          
1 39441U 13066AB  22343.29984089  .00002293  00000+0  32239-3 0  9997
2 39441  97.7614 290.8376 0078644 299.7800  59.5604 14.76232345485829
FUNCUBE-1 (AO-73)       
1 39444U 13066AE  22344.18818430  .00002721  00000+0  32160-3 0  9994
2 39444  97.6482 310.4874 0055422 173.6538 186.5392 14.84349801488174
UWE-3                   
1 39446U 13066AG  22343.53270432  .00002287  00000+0  29605-3 0  9995
2 39446  97.7106 300.3176 0066215 237.8959 121.5815 14.80295676486358
AEROCUBE 5A             
1 39465U 13072D   22343.81712205  .00053943  00000+0  20608-2 0  9991
2 39465 120.4809 254.8738 0164976 101.4312 260.5336 15.14437076176002
BRITE-CA1 (TORONTO)     
1 40020U 14033L   22343.96545648  .00000695  00000+0  12453-3 0  9995
2 40020  97.7989 134.2626 0087638  64.2066 296.8148 14.67311473453509
DUCHIFAT-1              
1 40021U 14033M   22343.34439660  .00005727  00000+0  53837-3 0  9996
2 40021  98.0348 297.0596 0011669 175.8728 184.2590 14.94269146460803
NANOSATC-BR1            
1 40024U 14033Q   22344.09883246  .00003394  00000+0  33276-3 0  9998
2 40024  98.0066 290.2246 0010983 180.4826 179.6384 14.92893581460699
QB50P1                  
1 40025U 14033R   22344.09802778  .00003129  00000+0  31843-3 0  9994
2 40025  97.9779 283.0904 0011213 192.0153 168.0799 14.91457760460448
QB50P2                  
1 40032U 14033Y   22343.79174106  .00002889  00000+0  29917-3 0  9996
2 40032  97.9521 277.4607 0010673 190.1946 169.9057 14.90816106460254
PERSEUS-M2              
1 40037U 14033AD  22344.03919479  .00001270  00000+0  14612-3 0  9998
2 40037  97.9019 265.3121 0013083 217.5528 142.4776 14.87482136459728
PERSEUS-M1              
1 40039U 14033AF  22343.20587686  .00001484  00000+0  17129-3 0  9992
2 40039  97.8899 261.9039 0012887 219.6954 140.3319 14.87083244458975
POLYITAN-1              
1 40042U 14033AJ  22343.83131146  .00003695  00000+0  37260-3 0  9995
2 40042  97.9889 284.2776 0013313 185.7878 174.3188 14.91692426460290
TIGRISAT                
1 40043U 14033AK  22343.29556236  .00001533  00000+0  22697-3 0  9994
2 40043  97.6540 163.1906 0057762 310.7821  48.8385 14.75419573455409
AEROCUBE 6A             
1 40045U 14033AM  22344.18360069  .00002013  00000+0  28647-3 0  9997
2 40045  97.6552 173.2981 0055345 294.2492  65.2942 14.76871140455959
AEROCUBE 6B             
1 40046U 14033AN  22343.76729532  .00003068  00000+0  42713-3 0  9996
2 40046  97.6478 171.3137 0053930 293.4097  66.1449 14.77480946456043
UKUBE-1                 
1 40074U 14037F   22344.19685289  .00002687  00000+0  31285-3 0  9997
2 40074  98.3591 233.9003 0005427  77.6981 282.4895 14.86184099456168
BRITE-PL2 (HEWELIUSZ)   
1 40119U 14049B   22343.49906527  .00001315  00000+0  15815-3 0  9991
2 40119  97.8849  77.3732 0017727  33.5231 326.7102 14.85543905449992
FIREBIRD 4              
1 40378U 15003C   22343.52942563  .00027427  00000+0  66249-3 0  9992
2 40378  99.0800 248.4397 0085490 147.3032 213.3541 15.37367415435253
GRIFEX                  
1 40379U 15003D   22344.16536824  .00015712  00000+0  49630-3 0  9992
2 40379  99.0867 232.8440 0104804 195.4707 164.3317 15.27672543434410
CP10 (EXOCUBE)          
1 40380U 15003E   22344.19053780  .00011465  00000+0  40897-3 0  9999
2 40380  99.0960 224.6893 0114994 223.2526 135.9634 15.22991338433884
TIANWANG 1A (TW-1A)     
1 40928U 15051D   22344.10837038  .00346261  48307-4  95596-3 0  9995
2 40928  97.0079   7.6992 0006023  93.0841 341.4577 15.93851736405802
EXACTVIEW 9             
1 40936U 15052G   22343.36526110  .00002059  00000+0  19346-3 0  9994
2 40936   6.0048   4.8570 0009793 116.5233 243.5899 14.77548807389129
AEROCUBE 5C             
1 40965U 15058B   22343.06715956  .00001248  00000+0  16054-3 0  9999
2 40965  64.7778 281.2997 0170195 141.3286 220.0153 14.76265979174732
AEROCUBE 7              
1 40966U 15058C   22343.05991925  .00001593  00000+0  19740-3 0  9999
2 40966  64.7777 278.0050 0167781 140.8857 220.4521 14.76976190174749
ATHENOXAT 1             
1 41168U 15077C   22343.03315707  .00023847  00000+0  83962-3 0  9994
2 41168  14.9852 231.6421 0007683 186.7797 210.4706 15.26957329386971
GALASSIA                
1 41170U 15077E   22343.02873256  .00017943  00000+0  67062-3 0  9997
2 41170  14.9865 224.9814 0009543 210.3192 149.6578 15.24655878386869
VELOX-II                
1 41171U 15077F   22342.55390552  .00014650  00000+0  64640-3 0  9999
2 41171  14.9919 311.8003 0006929  21.7442 338.3173 15.18853404386094
HORYU-4                 
1 41340U 16012D   22343.33240866  .00005484  00000+0  37451-3 0  9991
2 41340  31.0056 321.3410 0012655 144.8572 215.2901 15.04609310374073
E-ST@R-II               
1 41459U 16025D   22344.04847545  .00013717  00000+0  53221-3 0  9993
2 41459  98.1905 162.9267 0133369  32.0882 328.8459 15.18274682364093
AAUSAT 4                
1 41460U 16025E   22344.06535880  .00028794  00000+0  90271-3 0  9990
2 41460  98.1772 171.0761 0106873   1.1992 115.8448 15.27533720364662
BEESAT-4                
1 41619U 16040W   22343.10906621  .00029748  00000+0  81821-3 0  9993
2 41619  97.1929  29.4586 0007237 197.6341 162.4654 15.37116292347496
